[{"OBJECT_NAME":"STARLINK-2017","OBJECT_ID":"2021-005C","EPOCH":"2026-03-09T23:08:49.138368","MEAN_MOTION":15.30176805,"ECCENTRICITY":0.00013958,"INCLINATION":53.1609,"RA_OF_ASC_NODE":12.3908,"ARG_OF_PERICENTER":86.6287,"MEAN_ANOMALY":273.4873,"EPHEMERIS_TYPE":0,"CLASSIFICATION_TYPE":"U","NORAD_CAT_ID":47351,"ELEMENT_SET_NO":999,"REV_AT_EPOCH":28376,"BSTAR":-0.00036741012,"MEAN_MOTION_DOT":-0.00011217,"MEAN_MOTION_DDOT":0},{"OBJECT_NAME":"SIMSAT 1","OBJECT_ID":"2000-026A","EPOCH":"2026-03-09T17:22:54.646176","MEAN_MOTION":15.27666538,"ECCENTRICITY":0.00084816,"INCLINATION":86.3501,"RA_OF_ASC_NODE":180.5413,"ARG_OF_PERICENTER":14.8337,"MEAN_ANOMALY":345.3157,"EPHEMERIS_TYPE":0,"CLASSIFICATION_TYPE":"U","NORAD_CAT_ID":26365,"ELEMENT_SET_NO":999,"REV_AT_EPOCH":42720,"BSTAR":0.00013499313,"MEAN_MOTION_DOT":3.69e-5,"MEAN_MOTION_DDOT":0}]
